ORBCOMM FM115           
1 41186U 15081H   25255.55920650  .00000517  00000+0  13494-3 0  9992
2 41186  47.0001 343.9734 0000429 202.0987 157.9882 14.62645943520562
ORBCOMM FM108           
1 41187U 15081J   25255.46131098  .00000443  00000+0  13132-3 0  9990
2 41187  47.0053  54.7748 0002213 342.3107  17.7702 14.58295746519533
ORBCOMM FM117           
1 41188U 15081K   25255.49605964  .00000459  00000+0  13479-3 0  9993
2 41188  47.0016  53.3439 0002657 356.4379   3.6487 14.58292116519581
ORBCOMM FM116           
1 41189U 15081L   25255.41227794  .00000645  00000+0  17442-3 0  9998
2 41189  47.0018 143.5528 0001796 221.4052 138.6698 14.58374360518389
